NORAD_CAT_ID,OBJECT_NAME,OBJECT_TYPE,EPOCH,MEAN_MOTION,ECCENTRICITY,INCLINATION,RA_OF_ASC_NODE,ARG_OF_PERICENTER,MEAN_ANOMALY,BSTAR,MEAN_MOTION_DOT,MEAN_MOTION_DDOT,TLE_LINE0,TLE_LINE1,TLE_LINE2,SEMIMAJOR_AXIS,PERIOD,APOGEE,PERIGEE,DECAYED
51875.0,STARLINK-3585,PAYLOAD,2022-05-24 12:55:45,15.19869685,7.809999999999999e-05,53.2142,107.4609,120.9014,239.206,-0.01583,-0.00329128,0.0,0 STARLINK-3585,1 51875U 22022Z   22144.53872533 -.00329128  00000-0 -15830-1 0  9998,2 51875  53.2142 107.4609 0000781 120.9014 239.2060 15.19869685 14000,6884.371,94.745,506.774,505.698,0.0
51875.0,STARLINK-3585,PAYLOAD,2022-05-24 22:00:00,15.18253256,0.0001486,53.2176,105.7633,62.3161,205.1851,-0.037404,-0.00722555,0.0,0 STARLINK-3585,1 51875U 22022Z   22144.91667824 -.00722555  00000-0 -37404-1 0  9997,2 51875  53.2176 105.7633 0001486  62.3161 205.1851 15.18253256 14055,6889.257,94.846,512.145,510.098,0.0
51875.0,STARLINK-3585,PAYLOAD,2022-05-25 14:00:01,15.17234646,0.0001309,53.2175,102.7342,70.9722,241.1038,-0.038729,-0.00726166,0.0,0 STARLINK-3585,1 51875U 22022Z   22145.58334491 -.00726166  00000-0 -38729-1 0  9995,2 51875  53.2175 102.7342 0001309  70.9722 241.1038 15.17234646  1302,6892.34,94.91,515.107,513.302,0.0
51875.0,STARLINK-3585,PAYLOAD,2022-05-25 22:00:00,15.16723124,0.0001388,53.2177,101.2207,62.2686,271.1762,-0.039077,-0.00722274,0.0,0 STARLINK-3585,1 51875U 22022Z   22145.91667824 -.00722274  00000-0 -39077-1 0  9994,2 51875  53.2177 101.2207 0001388  62.2686 271.1762 15.16723124 14201,6893.889,94.942,516.711,514.797,0.0
51875.0,STARLINK-3585,PAYLOAD,2022-05-26 10:46:27,15.16903672,0.0001575999999999,53.2138,98.7865,73.4358,286.681,-0.015895,-0.00304361,0.0,0 STARLINK-3585,1 51875U 22022Z   22146.44893490 -.00304361  00000-0 -15895-1 0  9998,2 51875  53.2138  98.7865 0001576  73.4358 286.6810 15.16903672 14299,6893.342,94.93,516.294,514.121,0.0
51875.0,STARLINK-3585,PAYLOAD,2022-05-26 22:00:00,15.15193107,0.0001372,53.2176,96.689,59.3342,334.5391,-0.040836,-0.00722443,0.0,0 STARLINK-3585,1 51875U 22022Z   22146.91667824 -.00722443  00000-0 -40836-1 0  9998,2 51875  53.2176  96.6890 0001372  59.3342 334.5391 15.15193107 14364,6898.529,95.037,521.341,519.448,0.0
51875.0,STARLINK-3585,PAYLOAD,2022-05-27 01:01:04,15.1615315,8.9e-05,53.2138,96.0979,309.4774,50.6143,-0.01517,-0.00285052,0.0,0 STARLINK-3585,1 51875U 22022Z   22147.04241366 -.00285052  00000-0 -15170-1 0  9995,2 51875  53.2138  96.0979 0000890 309.4774  50.6143 15.16153150 14384,6895.6169999999975,94.977,518.096,516.868,0.0
51875.0,STARLINK-3585,PAYLOAD,2022-05-27 13:41:48,15.15500065,0.000179,53.2149,93.7105,70.5458,289.573,-0.012101,-0.00225111,0.0,0 STARLINK-3585,1 51875U 22022Z   22147.57069489 -.00225111  00000-0 -12101-1 0  9998,2 51875  53.2149  93.7105 0001790  70.5458 289.5730 15.15500065 14460,6897.598000000001,95.018,520.697,518.2280000000002,0.0
51875.0,STARLINK-3585,PAYLOAD,2022-05-27 22:00:01,15.13626292,0.0001351999999999,53.2167,92.1663,57.6956,31.1724,-0.039375,-0.00669843,0.0,0 STARLINK-3585,1 51875U 22022Z   22147.91668981 -.00669843  00000-0 -39375-1 0  9994,2 51875  53.2167  92.1663 0001352  57.6956  31.1724 15.13626292 14514,6903.2890000000025,95.136,526.087,524.221,0.0
51875.0,STARLINK-3585,PAYLOAD,2022-05-28 14:00:01,15.12642581,0.0001378,53.2175,89.1594,66.7857,55.5463,-0.043855,-0.00721883,0.0,0 STARLINK-3585,1 51875U 22022Z   22148.58334491 -.00721883  00000-0 -43855-1 0  9995,2 51875  53.2175  89.1594 0001378  66.7857  55.5463 15.12642581 14610,6906.281999999997,95.198,529.0980000000002,527.195,0.0
51875.0,STARLINK-3585,PAYLOAD,2022-05-28 19:48:47,15.13725663,0.0002158,53.2143,88.0518,62.3163,297.805,-0.013279,-0.00234608,0.0,0 STARLINK-3585,1 51875U 22022Z   22148.82554557 -.00234608  00000-0 -13279-1 0  9990,2 51875  53.2143  88.0518 0002158  62.3163 297.8050 15.13725663 14659,6902.986999999999,95.13,526.342,523.362,0.0
51875.0,STARLINK-3585,PAYLOAD,2022-05-29 06:00:02,15.11521802,0.0001592,53.2167,86.1557,63.0652,90.4792,-0.036416,-0.00583039,0.0,0 STARLINK-3585,1 51875U 22022Z   22149.25002315 -.00583039  00000-0 -36416-1 0  9991,2 51875  53.2167  86.1557 0001592  63.0652  90.4792 15.11521802 14713,6909.695,95.268,532.66,530.46,0.0
51875.0,STARLINK-3585,PAYLOAD,2022-05-29 13:16:05,15.12543812,0.0001440999999999,53.2139,84.7761,103.6761,256.4394,-0.012652,-0.00216771,0.0,0 STARLINK-3585,1 51875U 22022Z   22149.55283941 -.00216771  00000-0 -12652-1 0  9992,2 51875  53.2139  84.7761 0001441 103.6761 256.4394 15.12543812 14761,6906.581999999999,95.204,529.443,527.452,0.0
51875.0,STARLINK-3585,PAYLOAD,2022-05-29 14:00:01,15.11112134,0.0001514,53.2175,84.6558,60.5891,107.4644,-0.045696,-0.00720757,0.0,0 STARLINK-3585,1 51875U 22022Z   22149.58334491 -.00720757  00000-0 -45696-1 0  9990,2 51875  53.2175  84.6558 0001514  60.5891 107.4644 15.11112134 14761,6910.944,95.294,533.855,531.763,0.0
51875.0,STARLINK-3585,PAYLOAD,2022-05-29 19:37:08,15.12112766,0.0001383,53.2138,83.5848,37.2378,322.8711,-0.013153,-0.00222471,0.0,0 STARLINK-3585,1 51875U 22022Z   22149.81745697 -.00222471  00000-0 -13153-1 0  9993,2 51875  53.2138  83.5848 0001383  37.2378 322.8711 15.12112766 14800,6907.895,95.231,530.715,528.805,0.0
51875.0,STARLINK-3585,PAYLOAD,2022-05-30 12:00:00,15.09711506,0.0001512,53.2174,80.5369,55.9004,59.2192,-0.047761,-0.00724339,0.0,0 STARLINK-3585,1 51875U 22022Z   22150.50001157 -.00724339  00000-0 -47761-1 0  9999,2 51875  53.2174  80.5369 0001512  55.9004  59.2192 15.09711506 14900,6915.218000000003,95.382,538.128,536.0369999999998,0.0
51875.0,STARLINK-3585,PAYLOAD,2022-05-30 13:05:26,15.11042919,7.4e-05,53.214,80.3125,129.3265,230.7794,-0.014127,-0.00231613,0.0,0 STARLINK-3585,1 51875U 22022Z   22150.54544304 -.00231613  00000-0 -14127-1 0  9997,2 51875  53.2140  80.3125 0000740 129.3265 230.7794 15.11042919 14911,6911.155,95.298,533.5319999999998,532.509,0.0
51875.0,STARLINK-3585,PAYLOAD,2022-05-30 22:00:00,15.08837482,0.0001547,53.2169,78.6639,68.97,151.5369,-0.00038006,-6.331e-05,0.0,0 STARLINK-3585,1 51875U 22022Z   22150.91667824 -.00006331  00000-0 -38006-3 0  9992,2 51875  53.2169  78.6639 0001547  68.9700 151.5369 15.08837482 14966,6917.888000000001,95.438,540.823,538.683,0.0
51875.0,STARLINK-3585,PAYLOAD,2022-05-31 04:58:54,15.10169887,0.0001556,53.2147,77.347,230.4457,129.6398,-0.011841,-0.00190638,0.0,0 STARLINK-3585,1 51875U 22022Z   22151.20757130 -.00190638  00000-0 -11841-1 0  9995,2 51875  53.2147  77.3470 0001556 230.4457 129.6398 15.10169887 15011,6913.818,95.354,536.759,534.6080000000002,0.0
51875.0,STARLINK-3585,PAYLOAD,2022-05-31 22:00:00,15.08875681,0.0001250999999999,53.2162,74.1679,58.023,197.279,-0.0041898999999999,-0.00066419,0.0,0 STARLINK-3585,1 51875U 22022Z   22151.91667824 -.00066419  00000-0 -41899-2 0  9999,2 51875  53.2162  74.1679 0001251  58.0230 197.2790 15.08875681 15110,6917.771,95.435,540.502,538.771,0.0
51875.0,STARLINK-3585,PAYLOAD,2022-06-01 14:00:01,15.08821763,0.0001141,53.2161,71.1745,56.9366,221.5728,0.0023118,0.00036678,0.0,0 STARLINK-3585,1 51875U 22022Z   22152.58334491  .00036678  00000-0  23118-2 0  9990,2 51875  53.2161  71.1745 0001141  56.9366 221.5728 15.08821763 15210,6917.936,95.439,540.59,539.012,0.0
51875.0,STARLINK-3585,PAYLOAD,2022-06-01 20:00:01,15.08851223,0.0001172,53.2164,70.0526,60.6798,136.5082,-0.00014202,-2.548e-05,0.0,0 STARLINK-3585,1 51875U 22022Z   22152.83334491 -.00002548  00000-0 -14202-3 0  9994,2 51875  53.2164  70.0526 0001172  60.6798 136.5082 15.08851223  1300,6917.846,95.437,540.5219999999998,538.9,0.0
51875.0,STARLINK-3585,PAYLOAD,2022-06-02 18:58:34,15.088406099999998,0.0001284999999999,53.217,65.7555,65.42699999999999,294.6856,8.76e-06,-1.48e-06,0.0,0 STARLINK-3585,1 51875U 22022Z   22153.79068163 -.00000148  00000-0  87600-5 0  9997,2 51875  53.2170  65.7555 0001285  65.4270 294.6856 15.08840610 15402,6917.879,95.438,540.632,538.855,0.0
51875.0,STARLINK-3585,PAYLOAD,2022-06-03 02:55:30,15.08837691,0.0001375999999999,53.2169,64.2678,59.8591,300.2537,-2.0578e-05,-6.15e-06,0.0,0 STARLINK-3585,1 51875U 22022Z   22154.12188476 -.00000615  00000-0 -20578-4 0  9995,2 51875  53.2169  64.2678 0001376  59.8591 300.2537 15.08837691 15454,6917.887,95.438,540.7040000000002,538.8009999999998,0.0
51875.0,STARLINK-3585,PAYLOAD,2022-06-03 17:13:58,15.08839665,0.0001402,53.2173,61.5917,62.2072,297.9062,4.9438e-05,4.99e-06,0.0,0 STARLINK-3585,1 51875U 22022Z   22154.71804206  .00000499  00000-0  49438-4 0  9990,2 51875  53.2173  61.5917 0001402  62.2072 297.9062 15.08839665 15545,6917.880999999999,95.438,540.716,538.7769999999998,0.0
51875.0,STARLINK-3585,PAYLOAD,2022-06-04 02:46:17,15.08847033,0.0001415,53.2172,59.8074,62.3601,297.7535,5.739100000000001e-05,6.26e-06,0.0,0 STARLINK-3585,1 51875U 22022Z   22155.11547653  .00000626  00000-0  57391-4 0  9994,2 51875  53.2172  59.8074 0001415  62.3601 297.7535 15.08847033 15609,6917.859,95.437,540.703,538.745,0.0
51875.0,STARLINK-3585,PAYLOAD,2022-06-04 10:43:12,15.08850576,0.0001443,53.2172,58.3203,58.4309,301.6824,7.8017e-05,9.54e-06,0.0,0 STARLINK-3585,1 51875U 22022Z   22155.44667193  .00000954  00000-0  78017-4 0  9994,2 51875  53.2172  58.3203 0001443  58.4309 301.6824 15.08850576 15656,6917.848000000001,95.437,540.711,538.715,0.0
51875.0,STARLINK-3585,PAYLOAD,2022-06-05 22:00:00,15.08866302,0.0001657,53.2149,51.7223,65.2546,4.0067,-0.0015454,-0.00024817,0.0,0 STARLINK-3585,1 51875U 22022Z   22156.91667824 -.00024817  00000-0 -15454-2 0  9998,2 51875  53.2149  51.7223 0001657  65.2546   4.0067 15.08866302 15876,6917.8,95.436,540.811,538.519,0.0
51875.0,STARLINK-3585,PAYLOAD,2022-06-06 14:00:01,15.08815485,0.0001486999999999,53.2151,48.7277,67.2671,25.2264,0.0030685,0.00048853,0.0,0 STARLINK-3585,1 51875U 22022Z   22157.58334491  .00048853  00000-0  30685-2 0  9990,2 51875  53.2151  48.7277 0001487  67.2671  25.2264 15.08815485  1309,6917.955,95.439,540.849,538.7919999999998,0.0
